IONOSFERA-M 4           
1 64877U 25155B   26195.87295767 -.00000001  00000+0  18936-4 0  9996
2 64877  98.6038 157.0005 0001821 100.1171 260.0212 14.21493216 50336
MICROCARB               
1 64899U 25156A   26195.80318054  .00000259  00000+0  48269-4 0  9995
2 64899  98.0075 272.5108 0017590 171.9650 188.1842 14.72884852 52034
CO3D 3                  
1 64900U 25156B   26195.83320110  .00002387  00000+0  11340-3 0  9990
2 64900  97.4338 274.1287 0001775  94.0328 266.1110 15.20190205 53732
CO3D 4                  
1 64901U 25156C   26195.83335601  .00000671  00000+0  34119-4 0  9996
2 64901  97.4336 274.1289 0001630 154.2897 205.8420 15.20208624 53732
CO3D 2                  
1 64902U 25156D   26195.80001442  .00002240  00000+0  10658-3 0  9992
2 64902  97.4338 273.9948 0001239  88.6753 271.4624 15.20199664 53727
CO3D 1                  
1 64903U 25156E   26195.80016816  .00002300  00000+0  10935-3 0  9999
2 64903  97.4336 273.9949 0001281 100.1879 259.9501 15.20199536 53726
PRSC-S1                 
1 65055U 25164A   26195.90806219  .00002239  00000+0  16016-3 0  9999
2 65055  41.1298 131.6627 0006667 196.2435 163.8166 15.06633610 52615
SENTINEL-6B             
1 66514U 25264A   26195.80278803 -.00000044  00000+0  73589-4 0  9994
2 66514  66.0413  77.8217 0007845 268.6707  91.3410 12.80930157 30700
CAS500-3                
1 66655U 25274F   26195.77942951  .00000579  00000+0  68258-4 0  9998
2 66655  97.7437 123.2031 0006266  39.4856 320.6817 14.88383181 34250
CSG-3                   
1 67304U 26001A   26194.52815792  .00000135  00000+0  23485-4 0  9994
2 67304  97.8894  17.7492 0001518  93.3222 266.8165 14.82151371 28369
PRSC-E03                
1 68835U 26092A   26195.69119763  .00001265  00000+0  90593-4 0  9997
2 68835  38.0016 287.4793 0004875 248.1073 111.9171 15.06807853 12107
CAS500-2                
1 69013U 26100AK  26195.72196804  .00003545  00000+0  16337-3 0  9997
2 69013  97.3871  93.0552 0007846 294.2502  65.7914 15.20898856 10992
