OBJECT_NAME,OBJECT_ID,EPOCH,MEAN_MOTION,ECCENTRICITY,INCLINATION,RA_OF_ASC_NODE,ARG_OF_PERICENTER,MEAN_ANOMALY,EPHEMERIS_TYPE,CLASSIFICATION_TYPE,NORAD_CAT_ID,ELEMENT_SET_NO,REV_AT_EPOCH,BSTAR,MEAN_MOTION_DOT,MEAN_MOTION_DDOT
IONOSFERA-M 4,2025-155B,2026-07-14T20:57:03.542688,14.21493216,.0001821,98.6038,157.0005,100.1171,260.0212,0,U,64877,999,5033,.18936E-4,-.1E-7,0
MICROCARB,2025-156A,2026-07-14T19:16:34.798656,14.72884852,.001759,98.0075,272.5108,171.9650,188.1842,0,U,64899,999,5203,.48269E-4,.259E-5,0
CO3D 3,2025-156B,2026-07-14T19:59:48.575040,15.20190205,.0001775,97.4338,274.1287,94.0328,266.1110,0,U,64900,999,5373,.1134E-3,.2387E-4,0
CO3D 4,2025-156C,2026-07-14T20:00:01.959264,15.20208624,.000163,97.4336,274.1289,154.2897,205.8420,0,U,64901,999,5373,.34119E-4,.671E-5,0
CO3D 2,2025-156D,2026-07-14T19:12:01.245888,15.20199664,.0001239,97.4338,273.9948,88.6753,271.4624,0,U,64902,999,5372,.10658E-3,.224E-4,0
CO3D 1,2025-156E,2026-07-14T19:12:14.529024,15.20199536,.0001281,97.4336,273.9949,100.1879,259.9501,0,U,64903,999,5372,.10935E-3,.23E-4,0
PRSC-S1,2025-164A,2026-07-14T21:47:36.573216,15.06633610,.0006667,41.1298,131.6627,196.2435,163.8166,0,U,65055,999,5261,.16016E-3,.2239E-4,0
SENTINEL-6B,2025-264A,2026-07-14T19:16:00.885792,12.80930157,.0007845,66.0413,77.8217,268.6707,91.3410,0,U,66514,999,3070,.73589E-4,-.44E-6,0
CAS500-3,2025-274F,2026-07-14T18:42:22.709664,14.88383181,.0006266,97.7437,123.2031,39.4856,320.6817,0,U,66655,999,3425,.68258E-4,.579E-5,0
CSG-3,2026-001A,2026-07-13T12:40:32.844288,14.82151371,.00015181,97.8894,17.7492,93.3222,266.8165,0,U,67304,999,2836,.2348529E-4,.135E-5,0
PRSC-E03,2026-092A,2026-07-14T16:35:19.475232,15.06807853,.0004875,38.0016,287.4793,248.1073,111.9171,0,U,68835,999,1210,.90593E-4,.1265E-4,0
CAS500-2,2026-100AK,2026-07-14T17:19:38.038656,15.20898856,.0007846,97.3871,93.0552,294.2502,65.7914,0,U,69013,999,1099,.16337E-3,.3545E-4,0
